start=new Date('2021-10-05T00:00:00.000Z').valueOf();
sats=[{"EPOCH":"2021-10-04T13:03:02.429568","DECAY_DATE":null,"OBJECT_NAME":"STARLINK-1790","MEAN_ANOMALY":"286.1270","BSTAR":"0.00010587000000","FILE":"3144803","COUNTRY_CODE":"US","INCLINATION":"53.0544","OBJECT_ID":"2020-073X","SITE":"AFETR","EPHEMERIS_TYPE":"0","TLE_LINE1":"1 46691U 20073X   21277.54377812  .00001296  00000-0  10587-3 0  9996","CENTER_NAME":"EARTH","ELEMENT_SET_NO":"999","APOAPSIS":"548.222","TIME_SYSTEM":"UTC","ECCENTRICITY":"0.00014460","LAUNCH_DATE":"2020-10-18","PERIAPSIS":"546.219","RCS_SIZE":"LARGE","SEMIMAJOR_AXIS":"6925.355","REF_FRAME":"TEME","RA_OF_ASC_NODE":"301.2713","CLASSIFICATION_TYPE":"U","MEAN_MOTION":"15.06397772","ARG_OF_PERICENTER":"73.9878","MEAN_MOTION_DDOT":"0.0000000000000","OBJECT_TYPE":"PAYLOAD","REV_AT_EPOCH":"5338","MEAN_ELEMENT_THEORY":"SGP4","PERIOD":"95.592","TLE_LINE2":"2 46691  53.0544 301.2713 0001446  73.9878 286.1270 15.06397772 53385","NORAD_CAT_ID":"46691","MEAN_MOTION_DOT":"0.00001296","GP_ID":"186226701"},{"SEMIMAJOR_AXIS":"6925.350","RCS_SIZE":"LARGE","LAUNCH_DATE":"2020-10-18","PERIAPSIS":"546.477","ECCENTRICITY":"0.00010650","APOAPSIS":"547.952","TIME_SYSTEM":"UTC","NORAD_CAT_ID":"46692","PERIOD":"95.592","TLE_LINE2":"2 46692  53.0546 316.0391 0001065  86.1171 273.9940 15.06399586 53184","GP_ID":"186225452","MEAN_MOTION_DOT":"0.00000128","MEAN_ELEMENT_THEORY":"SGP4","REV_AT_EPOCH":"5318","MEAN_MOTION_DDOT":"0.0000000000000","OBJECT_TYPE":"PAYLOAD","RA_OF_ASC_NODE":"316.0391","REF_FRAME":"TEME","ARG_OF_PERICENTER":"86.1171","MEAN_MOTION":"15.06399586","CLASSIFICATION_TYPE":"U","COUNTRY_CODE":"US","BSTAR":"0.00002751200000","FILE":"3144803","OBJECT_NAME":"STARLINK-1791","DECAY_DATE":null,"MEAN_ANOMALY":"273.9940","EPOCH":"2021-10-04T14:18:00.043776","ELEMENT_SET_NO":"999","CENTER_NAME":"EARTH","TLE_LINE1":"1 46692U 20073Y   21277.59583384  .00000128  00000-0  27512-4 0  9995","OBJECT_ID":"2020-073Y","INCLINATION":"53.0546","EPHEMERIS_TYPE":"0","SITE":"AFETR"},{"PERIOD":"95.592","TLE_LINE2":"2 46693  53.0551 301.8445 0001210  76.4374 283.6750 15.06399594 53368","NORAD_CAT_ID":"46693","MEAN_MOTION_DOT":"0.00000112","GP_ID":"186193497","MEAN_ELEMENT_THEORY":"SGP4","REV_AT_EPOCH":"5336","MEAN_MOTION_DDOT":"0.0000000000000","OBJECT_TYPE":"PAYLOAD","REF_FRAME":"TEME","RA_OF_ASC_NODE":"301.8445","CLASSIFICATION_TYPE":"U","ARG_OF_PERICENTER":"76.4374","MEAN_MOTION":"15.06399594","SEMIMAJOR_AXIS":"6925.350","RCS_SIZE":"LARGE","PERIAPSIS":"546.377","LAUNCH_DATE":"2020-10-18","ECCENTRICITY":"0.00012100","APOAPSIS":"548.053","TIME_SYSTEM":"UTC","ELEMENT_SET_NO":"999","CENTER_NAME":"EARTH","TLE_LINE1":"1 46693U 20073Z   21277.41476650  .00000112  00000-0  26377-4 0  9995","INCLINATION":"53.0551","OBJECT_ID":"2020-073Z","SITE":"AFETR","EPHEMERIS_TYPE":"0","COUNTRY_CODE":"US","BSTAR":"0.00002637700000","FILE":"3144407","OBJECT_NAME":"STARLINK-1792","DECAY_DATE":null,"MEAN_ANOMALY":"283.6750","EPOCH":"2021-10-04T09:57:15.825600"},{"APOAPSIS":"550.971","TIME_SYSTEM":"UTC","LAUNCH_DATE":"2020-10-18","PERIAPSIS":"543.529","ECCENTRICITY":"0.00053730","RCS_SIZE":"LARGE","SEMIMAJOR_AXIS":"6925.385","REF_FRAME":"TEME","RA_OF_ASC_NODE":"282.3423","CLASSIFICATION_TYPE":"U","MEAN_MOTION":"15.06388019","ARG_OF_PERICENTER":"137.0133","MEAN_MOTION_DDOT":"0.0000000000000","OBJECT_TYPE":"PAYLOAD","MEAN_ELEMENT_THEORY":"SGP4","REV_AT_EPOCH":"5363","PERIOD":"95.593","TLE_LINE2":"2 46694  53.0566 282.3423 0005373 137.0133 223.1277 15.06388019 53638","NORAD_CAT_ID":"46694","MEAN_MOTION_DOT":"-0.00001927","GP_ID":"186193248","EPOCH":"2021-10-04T07:20:41.868960","OBJECT_NAME":"STARLINK-1793","DECAY_DATE":null,"MEAN_ANOMALY":"223.1277","BSTAR":"-0.00011037000000","FILE":"3144407","COUNTRY_CODE":"US","INCLINATION":"53.0566","OBJECT_ID":"2020-073AA","SITE":"AFETR","EPHEMERIS_TYPE":"0","TLE_LINE1":"1 46694U 20073AA  21277.30604015 -.00001927  00000-0 -11037-3 0  9995","CENTER_NAME":"EARTH","ELEMENT_SET_NO":"999"},{"DECAY_DATE":null,"OBJECT_NAME":"STARLINK-1795","MEAN_ANOMALY":"276.1012","EPOCH":"2021-10-04T17:20:27.040416","COUNTRY_CODE":"US","BSTAR":"0.00003301300000","FILE":"3144803","TLE_LINE1":"1 46696U 20073AC  21277.72253519  .00000210  00000-0  33013-4 0  9993","OBJECT_ID":"2020-073AC","INCLINATION":"53.0547","EPHEMERIS_TYPE":"0","SITE":"AFETR","ELEMENT_SET_NO":"999","CENTER_NAME":"EARTH","PERIAPSIS":"546.438","LAUNCH_DATE":"2020-10-18","ECCENTRICITY":"0.00011220","APOAPSIS":"547.992","TIME_SYSTEM":"UTC","SEMIMAJOR_AXIS":"6925.350","RCS_SIZE":"LARGE","MEAN_MOTION_DDOT":"0.0000000000000","OBJECT_TYPE":"PAYLOAD","RA_OF_ASC_NODE":"280.4545","REF_FRAME":"TEME","MEAN_MOTION":"15.06399497","ARG_OF_PERICENTER":"84.0105","CLASSIFICATION_TYPE":"U","NORAD_CAT_ID":"46696","TLE_LINE2":"2 46696  53.0547 280.4545 0001122  84.0105 276.1012 15.06399497 53694","PERIOD":"95.592","GP_ID":"186226202","MEAN_MOTION_DOT":"0.00000210","MEAN_ELEMENT_THEORY":"SGP4","REV_AT_EPOCH":"5369"},{"SITE":"AFETR","EPHEMERIS_TYPE":"0","OBJECT_ID":"2020-073AE","INCLINATION":"53.0546","TLE_LINE1":"1 46698U 20073AE  21277.77968411  .00000229  00000-0  34244-4 0  9991","CENTER_NAME":"EARTH","ELEMENT_SET_NO":"999","EPOCH":"2021-10-04T18:42:44.707104","MEAN_ANOMALY":"279.8394","OBJECT_NAME":"STARLINK-1797","DECAY_DATE":null,"FILE":"3144803","BSTAR":"0.00003424400000","COUNTRY_CODE":"US","MEAN_MOTION":"15.06391893","ARG_OF_PERICENTER":"80.2749","CLASSIFICATION_TYPE":"U","RA_OF_ASC_NODE":"300.2165","REF_FRAME":"TEME","OBJECT_TYPE":"PAYLOAD","MEAN_MOTION_DDOT":"0.0000000000000","REV_AT_EPOCH":"5342","MEAN_ELEMENT_THEORY":"SGP4","GP_ID":"186224953","MEAN_MOTION_DOT":"0.00000229","NORAD_CAT_ID":"46698","TLE_LINE2":"2 46698  53.0546 300.2165 0001365  80.2749 279.8394 15.06391893 53421","PERIOD":"95.593","TIME_SYSTEM":"UTC","APOAPSIS":"548.184","PERIAPSIS":"546.293","LAUNCH_DATE":"2020-10-18","ECCENTRICITY":"0.00013650","RCS_SIZE":"LARGE","SEMIMAJOR_AXIS":"6925.373"},{"REF_FRAME":"TEME","RA_OF_ASC_NODE":"300.1937","CLASSIFICATION_TYPE":"U","MEAN_MOTION":"15.06386285","ARG_OF_PERICENTER":"91.4534","MEAN_MOTION_DDOT":"0.0000000000000","OBJECT_TYPE":"PAYLOAD","REV_AT_EPOCH":"5342","MEAN_ELEMENT_THEORY":"SGP4","PERIOD":"95.593","TLE_LINE2":"2 46699  53.0557 300.1937 0001235  91.4534 268.6596 15.06386285 53421","NORAD_CAT_ID":"46699","MEAN_MOTION_DOT":"-0.00000385","GP_ID":"186225703","APOAPSIS":"548.111","TIME_SYSTEM":"UTC","PERIAPSIS":"546.400","LAUNCH_DATE":"2020-10-18","ECCENTRICITY":"0.00012350","RCS_SIZE":"LARGE","SEMIMAJOR_AXIS":"6925.391","INCLINATION":"53.0557","OBJECT_ID":"2020-073AF","EPHEMERIS_TYPE":"0","SITE":"AFETR","TLE_LINE1":"1 46699U 20073AF  21277.78336934 -.00000385  00000-0 -69886-5 0  9998","CENTER_NAME":"EARTH","ELEMENT_SET_NO":"999","EPOCH":"2021-10-04T18:48:03.110976","OBJECT_NAME":"STARLINK-1799","DECAY_DATE":null,"MEAN_ANOMALY":"268.6596","BSTAR":"-0.00000698860000","FILE":"3144803","COUNTRY_CODE":"US"},{"OBJECT_TYPE":"PAYLOAD","MEAN_MOTION_DDOT":"0.0000000000000","CLASSIFICATION_TYPE":"U","MEAN_MOTION":"15.06390876","ARG_OF_PERICENTER":"73.0642","REF_FRAME":"TEME","RA_OF_ASC_NODE":"316.3780","MEAN_MOTION_DOT":"0.00000396","GP_ID":"186193748","PERIOD":"95.593","TLE_LINE2":"2 46700  53.0532 316.3780 0001125  73.0642 287.0470 15.06390876 53175","NORAD_CAT_ID":"46700","REV_AT_EPOCH":"5317","MEAN_ELEMENT_THEORY":"SGP4","ECCENTRICITY":"0.00011250","LAUNCH_DATE":"2020-10-18","PERIAPSIS":"546.462","TIME_SYSTEM":"UTC","APOAPSIS":"548.021","SEMIMAJOR_AXIS":"6925.377","RCS_SIZE":"LARGE","TLE_LINE1":"1 46700U 20073AG  21277.52210946  .00000396  00000-0  45499-4 0  9990","SITE":"AFETR","EPHEMERIS_TYPE":"0","INCLINATION":"53.0532","OBJECT_ID":"2020-073AG","ELEMENT_SET_NO":"999","CENTER_NAME":"EARTH","MEAN_ANOMALY":"287.0470","DECAY_DATE":null,"OBJECT_NAME":"STARLINK-1800","EPOCH":"2021-10-04T12:31:50.257344","COUNTRY_CODE":"US","FILE":"3144407","BSTAR":"0.00004549900000"},{"MEAN_ANOMALY":"280.4105","DECAY_DATE":null,"OBJECT_NAME":"STARLINK-1801","EPOCH":"2021-10-04T13:18:57.839904","COUNTRY_CODE":"US","FILE":"3144803","BSTAR":"-0.00009723500000","TLE_LINE1":"1 46701U 20073AH  21277.55483611 -.00001729  00000-0 -97235-4 0  9993","SITE":"AFETR","EPHEMERIS_TYPE":"0","OBJECT_ID":"2020-073AH","INCLINATION":"53.0536","ELEMENT_SET_NO":"999","CENTER_NAME":"EARTH","LAUNCH_DATE":"2020-10-18","PERIAPSIS":"546.645","ECCENTRICITY":"0.00008270","TIME_SYSTEM":"UTC","APOAPSIS":"547.790","SEMIMAJOR_AXIS":"6925.353","RCS_SIZE":"LARGE","OBJECT_TYPE":"PAYLOAD","MEAN_MOTION_DDOT":"0.0000000000000","ARG_OF_PERICENTER":"79.6977","MEAN_MOTION":"15.06398651","CLASSIFICATION_TYPE":"U","RA_OF_ASC_NODE":"301.2160","REF_FRAME":"TEME","GP_ID":"186226702","MEAN_MOTION_DOT":"-0.00001729","NORAD_CAT_ID":"46701","TLE_LINE2":"2 46701  53.0536 301.2160 0000827  79.6977 280.4105 15.06398651 53391","PERIOD":"95.592","MEAN_ELEMENT_THEORY":"SGP4","REV_AT_EPOCH":"5339"},{"FILE":"3144803","BSTAR":"-0.00012106000000","COUNTRY_CODE":"US","EPOCH":"2021-10-04T16:48:37.749024","MEAN_ANOMALY":"231.1322","DECAY_DATE":null,"OBJECT_NAME":"STARLINK-1802","CENTER_NAME":"EARTH","ELEMENT_SET_NO":"999","EPHEMERIS_TYPE":"0","SITE":"AFETR","OBJECT_ID":"2020-073AJ","INCLINATION":"53.0560","TLE_LINE1":"1 46702U 20073AJ  21277.70043691 -.00002084  00000-0 -12106-3 0  9999","RCS_SIZE":"LARGE","SEMIMAJOR_AXIS":"6925.360","TIME_SYSTEM":"UTC","APOAPSIS":"548.808","LAUNCH_DATE":"2020-10-18","PERIAPSIS":"545.642","ECCENTRICITY":"0.00022860","MEAN_ELEMENT_THEORY":"SGP4","REV_AT_EPOCH":"5369","GP_ID":"186225453","MEAN_MOTION_DOT":"-0.00002084","NORAD_CAT_ID":"46702","TLE_LINE2":"2 46702  53.0560 280.5704 0002286 128.9871 231.1322 15.06396333 53696","PERIOD":"95.592","MEAN_MOTION":"15.06396333","ARG_OF_PERICENTER":"128.9871","CLASSIFICATION_TYPE":"U","RA_OF_ASC_NODE":"280.5704","REF_FRAME":"TEME","OBJECT_TYPE":"PAYLOAD","MEAN_MOTION_DDOT":"0.0000000000000"}];
